[{"OBJECT_NAME":"BB 1","OBJECT_ID":"2023-050K","EPOCH":"2026-03-09T20:29:58.628256","MEAN_MOTION":13.82403418,"ECCENTRICITY":0.00164346,"INCLINATION":81.0052,"RA_OF_ASC_NODE":175.5172,"ARG_OF_PERICENTER":205.3476,"MEAN_ANOMALY":154.6874,"EPHEMERIS_TYPE":0,"CLASSIFICATION_TYPE":"U","NORAD_CAT_ID":56171,"ELEMENT_SET_NO":999,"REV_AT_EPOCH":14781,"BSTAR":0.00021831819,"MEAN_MOTION_DOT":2.47e-6,"MEAN_MOTION_DDOT":0},{"OBJECT_NAME":"FENGYUN 1C DEB","OBJECT_ID":"1999-025EAN","EPOCH":"2026-03-01T14:03:29.689056","MEAN_MOTION":13.88471558,"ECCENTRICITY":0.01494211,"INCLINATION":99.2311,"RA_OF_ASC_NODE":343.8248,"ARG_OF_PERICENTER":17.0506,"MEAN_ANOMALY":343.5596,"EPHEMERIS_TYPE":0,"CLASSIFICATION_TYPE":"U","NORAD_CAT_ID":36716,"ELEMENT_SET_NO":999,"REV_AT_EPOCH":64025,"BSTAR":0.00031987081,"MEAN_MOTION_DOT":3.75e-6,"MEAN_MOTION_DDOT":0}]
